CTC1_L_00465001-01
1 10000U 23758XE  26075.70035880  .00000000  00000+0  00000-0 0  9996
2 10000  42.0000   0.0000 0000000   0.0000   0.0000 14.22770022    17
CTC1_L_00465002-01
1 10001U 24050EQ  26075.70035880  .00000000  00000+0  00000-0 0  9993
2 10001  42.0000  12.0000 0000000   0.0000  48.0000 14.22770022    13
CTC1_L_00465003-01
1 10002U 25063CL  26075.70035880  .00000000  00000+0  00000-0 0  9999
2 10002  42.0000  24.0000 0000000   0.0000  96.0000 14.22770022    10
CTC1_L_00465004-01
1 10003U 22757EX  26075.70035880  .00000000  00000+0  00000-0 0  9997
2 10003  42.0000  36.0000 0000000   0.0000 144.0000 14.22770022    18
CTC1_L_00465005-01
1 10004U 23996OL  26075.70035880  .00000000  00000+0  00000-0 0  9994
2 10004  42.0000  48.0000 0000000   0.0000 192.0000 14.22770022    15
CTC1_L_00465006-01
1 10005U 22430QF  26075.70035880  .00000000  00000+0  00000-0 0  9997
2 10005  42.0000  60.0000 0000000   0.0000 240.0000 14.22770022    14
CTC1_L_00465007-01
1 10006U 26855NI  26075.70035880  .00000000  00000+0  00000-0 0  9993
2 10006  42.0000  72.0000 0000000   0.0000 288.0000 14.22770022    10
CTC1_L_00465008-01
1 10007U 22908MF  26075.70035880  .00000000  00000+0  00000-0 0  9999
2 10007  42.0000  84.0000 0000000   0.0000 336.0000 14.22770022    18
CTC1_L_00465009-01
1 10008U 26770CP  26075.70035880  .00000000  00000+0  00000-0 0  9991
2 10008  42.0000  96.0000 0000000   0.0000  24.0000 14.22770022    16
CTC1_L_00465010-01
1 10009U 22837SM  26075.70035880  .00000000  00000+0  00000-0 0  9992
2 10009  42.0000 108.0000 0000000   0.0000  72.0000 14.22770022    14
CTC1_L_00465011-01
1 10010U 22972CV  26075.70035880  .00000000  00000+0  00000-0 0  9994
2 10010  42.0000 120.0000 0000000   0.0000 120.0000 14.22770022    14
CTC1_L_00465012-01
1 10011U 24576AI  26075.70035880  .00000000  00000+0  00000-0 0  9997
2 10011  42.0000 132.0000 0000000   0.0000 168.0000 14.22770022    10
CTC1_L_00465013-01
1 10012U 24131KD  26075.70035880  .00000000  00000+0  00000-0 0  9995
2 10012  42.0000 144.0000 0000000   0.0000 216.0000 14.22770022    18
CTC1_L_00465014-01
1 10013U 22093RB  26075.70035880  .00000000  00000+0  00000-0 0  9991
2 10013  42.0000 156.0000 0000000   0.0000 264.0000 14.22770022    15
CTC1_L_00465015-01
1 10014U 25610VE  26075.70035880  .00000000  00000+0  00000-0 0  9990
2 10014  42.0000 168.0000 0000000   0.0000 312.0000 14.22770022    13
CTC1_L_00465016-01
1 10015U 26594RT  26075.70035880  .00000000  00000+0  00000-0 0  9993
2 10015  42.0000 180.0000 0000000   0.0000   0.0000 14.22770022    12
CTC1_L_00465017-01
1 10016U 26138MZ  26075.70035880  .00000000  00000+0  00000-0 0  9998
2 10016  42.0000 192.0000 0000000   0.0000  48.0000 14.22770022    18
CTC1_L_00465018-01
1 10017U 23644KX  26075.70035880  .00000000  00000+0  00000-0 0  9998
2 10017  42.0000 204.0000 0000000   0.0000  96.0000 14.22770022    16
CTC1_L_00465019-01
1 10018U 24666FJ  26075.70035880  .00000000  00000+0  00000-0 0  9994
2 10018  42.0000 216.0000 0000000   0.0000 144.0000 14.22770022    14
CTC1_L_00465020-01
1 10019U 26623UL  26075.70035880  .00000000  00000+0  00000-0 0  9990
2 10019  42.0000 228.0000 0000000   0.0000 192.0000 14.22770022    11
CTC1_L_00465021-01
1 10020U 24868QK  26075.70035880  .00000000  00000+0  00000-0 0  9991
2 10020  42.0000 240.0000 0000000   0.0000 240.0000 14.22770022    11
CTC1_L_00465022-01
1 10021U 22826VQ  26075.70035880  .00000000  00000+0  00000-0 0  9994
2 10021  42.0000 252.0000 0000000   0.0000 288.0000 14.22770022    17
CTC1_L_00465023-01
1 10022U 24804YP  26075.70035880  .00000000  00000+0  00000-0 0  9993
2 10022  42.0000 264.0000 0000000   0.0000 336.0000 14.22770022    15
CTC1_L_00465024-01
1 10023U 26455H   26075.70035880  .00000000  00000+0  00000-0 0  9998
2 10023  42.0000 276.0000 0000000   0.0000  24.0000 14.22770022    13
CTC1_L_00465025-01
1 10024U 24482PI  26075.70035880  .00000000  00000+0  00000-0 0  9997
2 10024  42.0000 288.0000 0000000   0.0000  72.0000 14.22770022    10
CTC1_L_00465026-01
1 10025U 26463NR  26075.70035880  .00000000  00000+0  00000-0 0  9999
2 10025  42.0000 300.0000 0000000   0.0000 120.0000 14.22770022    10
CTC1_L_00465027-01
1 10026U 25212RK  26075.70035880  .00000000  00000+0  00000-0 0  9991
2 10026  42.0000 312.0000 0000000   0.0000 168.0000 14.22770022    16
CTC1_L_00465028-01
1 10027U 25933BW  26075.70035880  .00000000  00000+0  00000-0 0  9992
2 10027  42.0000 324.0000 0000000   0.0000 216.0000 14.22770022    14
CTC1_L_00465029-01
1 10028U 23019FU  26075.70035880  .00000000  00000+0  00000-0 0  9996
2 10028  42.0000 336.0000 0000000   0.0000 264.0000 14.22770022    11
CTC1_L_00465030-01
1 10029U 24768W   26075.70035880  .00000000  00000+0  00000-0 0  9999
2 10029  42.0000 348.0000 0000000   0.0000 312.0000 14.22770022    19
